{"type":"FeatureCollection","crs":{"type":"name","properties":{"name":"EPSG:4326"}},"features":[{"type":"Feature","geometry":{"type":"MultiPolygon","coordinates":[[[[-121.602054684551,38.7764761921879],[-121.593178106038,38.7604830850906],[-121.595026866741,38.7527066943876],[-121.604897262232,38.7358611175333],[-121.607174946025,38.7193578267752],[-121.611400822344,38.7140933620586],[-121.63228586847,38.6981889045538],[-121.636099762129,38.6909264797241],[-121.635499166496,38.6909296391578],[-121.633542227074,38.679903499475],[-121.623453455629,38.6691539893142],[-121.612155954256,38.6617690004034],[-121.603186473774,38.6530125567078],[-121.596555498419,38.643387412817],[-121.589573586316,38.6372831955837],[-121.583851794962,38.629989924767],[-121.583395207354,38.6286562234412],[-121.581465701582,38.6285139623081],[-121.556529360424,38.6030484262294],[-121.576748249173,38.597584284391],[-121.568043247982,38.5816022757693],[-121.578372167849,38.57619940026],[-121.58098402852,38.5749605090998],[-121.583302754542,38.5737253932546],[-121.591258783569,38.5722441639522],[-121.598634601533,38.5710569336657],[-121.618777739846,38.5672895826545],[-121.638270966814,38.5640440073964],[-121.638684939243,38.5692144793673],[-121.63871512623,38.5747132440722],[-121.645271274617,38.5751206866326],[-121.646349799134,38.5758619222541],[-121.647230263096,38.5763790739142],[-121.647513533347,38.5806643886402],[-121.647319881724,38.5883801828542],[-121.648713466072,38.5895039111897],[-121.651868137348,38.5896363395017],[-121.659146207829,38.5893591373302],[-121.662854935718,38.589453414331],[-121.664335186829,38.5903615217153],[-121.665897074139,38.5908399778898],[-121.677006760243,38.5908615687338],[-121.676754929232,38.5965533473436],[-121.66558523387,38.5968935862964],[-121.665028591906,38.6038810398096],[-121.676204447015,38.6036785555715],[-121.694018563716,38.6042624225468],[-121.711282579085,38.6040197646267],[-121.711223138461,38.6129611895499],[-121.711216434334,38.6241890223307],[-121.710465329569,38.6377145352876],[-121.710157303546,38.6504064659627],[-121.719406128641,38.6504659482737],[-121.719221099947,38.6697557095887],[-121.70985958659,38.6698221411204],[-121.709721091526,38.6736301049831],[-121.703585539745,38.6737820565968],[-121.703905286985,38.6771892025464],[-121.710388187642,38.6774002972761],[-121.710317926811,38.6786089743809],[-121.718427325206,38.6912639058892],[-121.716530697774,38.734502996837],[-121.70277352022,38.7349178162679],[-121.702723516398,38.7352662429677],[-121.684056913765,38.7352097405472],[-121.691099136959,38.7425795649025],[-121.695089685216,38.7479778877281],[-121.695063687073,38.7503864950364],[-121.694494596256,38.7506743712109],[-121.694549117706,38.7572152934285],[-121.696862254409,38.7597002181677],[-121.699495848921,38.7620967076879],[-121.69315291926,38.7666324718592],[-121.691181039058,38.7673312217387],[-121.690080052168,38.7661718419856],[-121.687356410532,38.7645315708672],[-121.684554107918,38.7641509510159],[-121.680361179109,38.7640412482089],[-121.678610235059,38.7626390387321],[-121.676962964678,38.761067559792],[-121.675402290993,38.7609539085725],[-121.665734241917,38.7681864960551],[-121.66363298006,38.7703130032814],[-121.661923634296,38.7707559526817],[-121.660426458026,38.7706791274316],[-121.659795626898,38.7703630526162],[-121.657726214809,38.7698324942628],[-121.657187493336,38.7696608500962],[-121.656908840427,38.7692848227687],[-121.656588738352,38.7691652572029],[-121.65665615871,38.7690208967417],[-121.656891649367,38.7685166648671],[-121.656684660458,38.767262119754],[-121.655948937545,38.7663640582252],[-121.655807971216,38.7663556748794],[-121.655675976361,38.76615822085],[-121.654946521892,38.7655394829117],[-121.652883514791,38.7652881753232],[-121.650207008657,38.7656040029577],[-121.64825209763,38.7661893910922],[-121.645496977231,38.7669951569479],[-121.644882721816,38.7674535941229],[-121.641659150656,38.7679270919897],[-121.638982945457,38.7683827895087],[-121.635332506553,38.7685159245439],[-121.634593529044,38.7691132270125],[-121.634762079043,38.7718798985007],[-121.636410651981,38.7741207671749],[-121.636476462558,38.7743009118865],[-121.636544154208,38.7747184359146],[-121.636583765421,38.7765100086403],[-121.636418744903,38.7766212042671],[-121.636399015204,38.7766533917053],[-121.63633841755,38.7766861281801],[-121.635985823411,38.7769942508895],[-121.635421520615,38.7774089039748],[-121.634547338571,38.7777650206964],[-121.63389611299,38.7784001342422],[-121.633445441687,38.7791218051064],[-121.63342696424,38.7794139365991],[-121.632921773284,38.7799453991871],[-121.633260477672,38.780472843092],[-121.633261814365,38.7805333909354],[-121.633345506806,38.7806206593756],[-121.633267461175,38.7807892869741],[-121.633137383325,38.7810703374544],[-121.632599465844,38.7813967708945],[-121.632586904702,38.7814814339625],[-121.632520537169,38.7815255112386],[-121.632312876319,38.7819964626596],[-121.632334667651,38.7820887250152],[-121.631848523674,38.7823341822292],[-121.630160688968,38.7825140982171],[-121.628741074138,38.7835264415826],[-121.628361872799,38.7837968472736],[-121.625479337156,38.7846745433769],[-121.621270634828,38.7838917367364],[-121.613579981611,38.7811413308148],[-121.608834416425,38.7803652312218],[-121.605145129877,38.778735917707],[-121.603198628878,38.7769007150672],[-121.602054684551,38.7764761921879]]],[[[-121.58345648144,38.5731266192023],[-121.583455606481,38.5730242940034],[-121.582164226157,38.5730738142573],[-121.581360613067,38.5506961365017],[-121.581250944941,38.5506894006074],[-121.581795652786,38.5154790479727],[-121.583166111804,38.4981427872334],[-121.583050035994,38.4981462026357],[-121.582777788073,38.492918053077],[-121.582663825101,38.4913437291811],[-121.582759794818,38.489556547574],[-121.582797591433,38.4850387196365],[-121.582817838561,38.4771804035162],[-121.582770323073,38.4724325834095],[-121.583256529034,38.4700940196546],[-121.583791877332,38.4688053509716],[-121.584688861313,38.4668816174991],[-121.587736189302,38.4602442583338],[-121.591294885961,38.4524865201272],[-121.595620739382,38.4430587063116],[-121.599307625632,38.4351099488795],[-121.602759972542,38.4275003594021],[-121.607393767543,38.417584798438],[-121.609059546812,38.4141168753485],[-121.610618995196,38.4106923698735],[-121.611536439206,38.4090305555677],[-121.611413416724,38.4090429444857],[-121.615355031053,38.4006490770576],[-121.618910280877,38.3929956299973],[-121.622774953603,38.384833666538],[-121.626610643085,38.3766089370492],[-121.630473160753,38.3684257417414],[-121.634308997559,38.3602848072234],[-121.638715640066,38.3505444084037],[-121.638780184918,38.3505457004295],[-121.661917618279,38.3510066844686],[-121.664723550985,38.3433153681534],[-121.668825581965,38.3451718953117],[-121.672302564273,38.3457187347791],[-121.672272011672,38.3443586001985],[-121.681932422372,38.339762631081],[-121.681967360549,38.3397460090951],[-121.680465297443,38.3451521457154],[-121.682414042434,38.3475341814026],[-121.685040622001,38.3575592080671],[-121.684320448028,38.358440911515],[-121.684484790318,38.365702432528],[-121.683661946094,38.368451330067],[-121.681653125371,38.3681222421416],[-121.680513227954,38.3683185412721],[-121.679575936566,38.3687938920147],[-121.678672938364,38.3690921114429],[-121.676579611326,38.3690497763786],[-121.675326644761,38.3698975723658],[-121.673407798398,38.3695936803047],[-121.67066662614,38.3690603085566],[-121.668306872262,38.3693071797227],[-121.665388652841,38.3689903815989],[-121.661227391442,38.3683490400986],[-121.658643852855,38.3686751048038],[-121.657962086351,38.3712994293139],[-121.657041463204,38.3865947378239],[-121.675342439838,38.3870399669347],[-121.675656444149,38.4009821797423],[-121.675266307618,38.4157175727811],[-121.675347169468,38.4157174855036],[-121.675485562124,38.4302194909932],[-121.687612827443,38.4303496778212],[-121.67566247993,38.443670892394],[-121.675146784075,38.4594587922171],[-121.656912151617,38.4593342402716],[-121.656899622814,38.4664475270377],[-121.638538168001,38.4661878615191],[-121.638565590871,38.4673484131211],[-121.638711579681,38.4735272328831],[-121.640245289536,38.4870992759238],[-121.630676192584,38.4870144184538],[-121.630115073417,38.4946635528315],[-121.626103599803,38.494574712874],[-121.621090048303,38.494499173724],[-121.620978823396,38.5012134595139],[-121.620728949814,38.5012169858472],[-121.620399076763,38.5141442158966],[-121.621216620029,38.5145459745037],[-121.621943078616,38.5145572916844],[-121.622907457802,38.5141893231966],[-121.626110087436,38.5147308827165],[-121.627051412259,38.5154239823988],[-121.62761950415,38.5155549010954],[-121.627992132516,38.5152922931081],[-121.628422010516,38.5151059306698],[-121.6293489596,38.5149853927333],[-121.630363630967,38.5150947197105],[-121.63150555139,38.5156644268245],[-121.631337676027,38.5171433505032],[-121.63407627012,38.5172404493504],[-121.639176104803,38.517108832263],[-121.639350750769,38.5208915698023],[-121.639223640953,38.5233928914646],[-121.631252235463,38.5235761921416],[-121.631120257677,38.5308754090494],[-121.631189080306,38.5364051160087],[-121.631620894175,38.5446185436466],[-121.631522699331,38.5463147563994],[-121.631322944554,38.5496740634049],[-121.631266291403,38.5512460111112],[-121.631676341787,38.5522577847197],[-121.632081625711,38.5527307165334],[-121.637736711765,38.5590385868877],[-121.638044242816,38.5595719344399],[-121.638100076705,38.5602484200867],[-121.638330379591,38.5632017871273],[-121.629240024498,38.564978820806],[-121.58345648144,38.5731266192023]]]]},"properties":{"site_name":"Yolo Bypass Area","site_id":239}}]}